0 COSMOS 2071
1 20556U 90029H   13281.46309196  .00000012  00000-0  18062-3 0  2380
2 20556 073.9808 309.4496 0002648 194.7289 306.6515 12.50873746 73638
0 COSMOS 2071
1 20556U 90029H   13283.52720093  .00000023  00000-0  25262-3 0  2395
2 20556 073.9805 306.6938 0002608 191.7995 241.4688 12.50873703 73890
0 COSMOS 2071
1 20556U 90029H   13285.53613186  .00000006  00000-0  14440-3 0  2401
2 20556 073.9802 304.0116 0002560 188.9536 287.8093 12.50873918 74144
0 COSMOS 2071
1 20556U 90029H   13287.77427269 -.00000021  00000-0 -31434-4 0  2417
2 20556 073.9800 301.0232 0002516 185.5825 286.4979 12.50874255 74427
0 COSMOS 2071
1 20556U 90029H   13290.16333897 -.00000040  00000-0 -15575-3 0  2426
2 20556 073.9801 297.8329 0002488 181.7736 245.0398 12.50874372 74723
0 COSMOS 2071
1 20556U 90029H   13292.49301068 -.00000018  00000-0 -10265-4 0  2437
2 20556 073.9804 294.7222 0002412 178.1408 296.0342 12.50874151 75010
0 COSMOS 2071
1 20556U 90029H   13294.50546588  .00000002  00000-0  11963-3 0  2446
2 20556 073.9805 292.0352 0002372 174.7507 358.7880 12.50874003 75269
